NORAD_CAT_ID,OBJECT_NAME,OBJECT_TYPE,EPOCH,MEAN_MOTION,ECCENTRICITY,INCLINATION,RA_OF_ASC_NODE,ARG_OF_PERICENTER,MEAN_ANOMALY,BSTAR,MEAN_MOTION_DOT,MEAN_MOTION_DDOT,TLE_LINE0,TLE_LINE1,TLE_LINE2,SEMIMAJOR_AXIS,PERIOD,APOGEE,PERIGEE,DECAYED
53837.0,STARLINK-4776,PAYLOAD,2022-11-30 14:00:01,15.08830335,0.0001798,53.2168,268.8665,44.3351,6.5688,0.00069333,0.00010761,0.0,0 STARLINK-4776,1 53837U 22114V   22334.58335648  .00010761  00000-0  69333-3 0  9994,2 53837  53.2168 268.8665 0001798  44.3351   6.5688 15.08830335  1302,6917.91,95.438,541.019,538.531,0.0
53837.0,STARLINK-4776,PAYLOAD,2022-11-30 22:00:00,15.08871658,0.0001748,53.2171,267.3687,44.6911,17.7316,-0.0033795,-0.00053719,0.0,0 STARLINK-4776,1 53837U 22114V   22334.91667824 -.00053719  00000-0 -33795-2 0  9999,2 53837  53.2171 267.3687 0001748  44.6911  17.7316 15.08871658 11928,6917.784000000002,95.436,540.8580000000002,538.439,0.0
53837.0,STARLINK-4776,PAYLOAD,2022-12-01 14:00:01,15.08835497,0.0001748,53.2166,264.3776,44.0313,41.605,0.0014853,0.00023427,0.0,0 STARLINK-4776,1 53837U 22114V   22335.58334491  .00023427  00000-0  14853-2 0  9999,2 53837  53.2166 264.3776 0001748  44.0313  41.6050 15.08835497  1301,6917.894,95.438,540.9680000000002,538.55,0.0
53837.0,STARLINK-4776,PAYLOAD,2022-12-01 22:00:00,15.08875466,0.0001873,53.2166,262.8815,47.3404,49.8876,-0.0036658,-0.00058215,0.0,0 STARLINK-4776,1 53837U 22114V   22335.91667824 -.00058215  00000-0 -36658-2 0  9997,2 53837  53.2166 262.8815 0001873  47.3404  49.8876 15.08875466 12076,6917.772,95.435,540.933,538.341,0.0
53837.0,STARLINK-4776,PAYLOAD,2022-12-02 14:00:01,15.08845778,0.0001859,53.2164,259.8883,47.9096,72.5271,-0.0003357,-5.628e-05,0.0,0 STARLINK-4776,1 53837U 22114V   22336.58334491 -.00005628  00000-0 -33570-3 0  9993,2 53837  53.2164 259.8883 0001859  47.9096  72.5271 15.08845778  1301,6917.863,95.437,541.014,538.442,0.0
53837.0,STARLINK-4776,PAYLOAD,2022-12-02 16:00:00,15.08841034,0.0001828,53.2162,259.5139,49.0068,164.3325,1.6554e-05,-2.5e-07,0.0,0 STARLINK-4776,1 53837U 22114V   22336.66667824 -.00000025  00000-0  16554-4 0  9990,2 53837  53.2162 259.5139 0001828  49.0068 164.3325 15.08841034 12187,6917.877,95.437,541.007,538.4780000000002,0.0
53837.0,STARLINK-4776,PAYLOAD,2022-12-02 22:00:00,15.08852251,0.0001855,53.2165,258.3923,47.9109,84.1237,-0.0023381,-0.0003732,0.0,0 STARLINK-4776,1 53837U 22114V   22336.91667824 -.00037320  00000-0 -23381-2 0  9991,2 53837  53.2165 258.3923 0001855  47.9109  84.1237 15.08852251  1307,6917.843000000003,95.437,540.991,538.425,0.0
53837.0,STARLINK-4776,PAYLOAD,2022-12-03 14:00:01,15.08740732,0.0001753,53.2161,255.3991,49.7674,105.4194,0.0063664,0.00102228,0.0,0 STARLINK-4776,1 53837U 22114V   22337.58334491  .00102228  00000-0  63664-2 0  9992,2 53837  53.2161 255.3991 0001753  49.7674 105.4194 15.08740732 12322,6918.184,95.444,541.262,538.836,0.0
53837.0,STARLINK-4776,PAYLOAD,2022-12-03 22:00:00,15.08845249,0.0001768,53.2162,253.9035,48.9797,117.7167,-0.0011302,-0.00018233,0.0,0 STARLINK-4776,1 53837U 22114V   22337.91667824 -.00018233  00000-0 -11302-2 0  9994,2 53837  53.2162 253.9035 0001768  48.9797 117.7167 15.08845249  1300,6917.864000000001,95.437,540.952,538.506,0.0
53837.0,STARLINK-4776,PAYLOAD,2022-12-04 06:00:00,15.08817483,0.0001924,53.2158,252.4081,43.9752,134.3153,0.0029655,0.00047195,0.0,0 STARLINK-4776,1 53837U 22114V   22338.25001157  .00047195  00000-0  29655-2 0  9990,2 53837  53.2158 252.4081 0001924  43.9752 134.3153 15.08817483 12424,6917.949000000001,95.439,541.145,538.4830000000002,0.0
53837.0,STARLINK-4776,PAYLOAD,2022-12-04 14:00:01,15.08830074,0.0001754,53.2159,250.91,49.2396,140.6495,0.0026646,0.00042363,0.0,0 STARLINK-4776,1 53837U 22114V   22338.58334491  .00042363  00000-0  26646-2 0  9995,2 53837  53.2159 250.9100 0001754  49.2396 140.6495 15.08830074  1309,6917.911,95.438,540.989,538.562,0.0
53837.0,STARLINK-4776,PAYLOAD,2022-12-04 22:00:00,15.08879778,0.0001824,53.216,249.4145,49.3975,152.0903,-0.0034179,-0.00054334,0.0,0 STARLINK-4776,1 53837U 22114V   22338.91667824 -.00054334  00000-0 -34179-2 0  9994,2 53837  53.2160 249.4145 0001824  49.3975 152.0903 15.08879778 12526,6917.759,95.435,540.886,538.362,0.0
53837.0,STARLINK-4776,PAYLOAD,2022-12-05 14:00:01,15.08855508,0.0001737,53.216,246.4207,47.7023,177.0899,0.00085016,0.00013274,0.0,0 STARLINK-4776,1 53837U 22114V   22339.58335648  .00013274  00000-0  85016-3 0  9997,2 53837  53.2160 246.4207 0001737  47.7023 177.0899 15.08855508  1301,6917.833000000001,95.437,540.9,538.496,0.0
53837.0,STARLINK-4776,PAYLOAD,2022-12-05 16:00:00,15.08857881,0.0001735,53.2159,246.0464,49.1558,268.4785,0.00052501,8.081e-05,0.0,0 STARLINK-4776,1 53837U 22114V   22339.66667824  .00008081  00000-0  52501-3 0  9993,2 53837  53.2159 246.0464 0001735  49.1558 268.4785 15.08857881 12641,6917.826,95.436,540.891,538.49,0.0
53837.0,STARLINK-4776,PAYLOAD,2022-12-06 11:15:52,15.08853743,0.0001955,53.2173,242.4447,41.5468,318.5672,0.00010654,1.408e-05,0.0,0 STARLINK-4776,1 53837U 22114V   22340.46936250  .00001408  00000-0  10654-3 0  9994,2 53837  53.2173 242.4447 0001955  41.5468 318.5672 15.08853743 12766,6917.8380000000025,95.437,541.056,538.351,0.0
53837.0,STARLINK-4776,PAYLOAD,2022-12-06 16:02:03,15.08841595,0.000189,53.2171,241.5526,43.7111,316.4031,-5.3686e-06,-3.74e-06,0.0,0 STARLINK-4776,1 53837U 22114V   22340.66809478 -.00000374  00000-0 -53686-5 0  9994,2 53837  53.2171 241.5526 0001890  43.7111 316.4031 15.08841595 13331,6917.876,95.437,541.048,538.433,0.0
53837.0,STARLINK-4776,PAYLOAD,2022-12-07 03:09:45,15.08839591,0.0001893,53.2168,239.4703,43.7303,316.3839,-0.00015792,-2.801e-05,0.0,0 STARLINK-4776,1 53837U 22114V   22341.13178114 -.00002801  00000-0 -15792-3 0  9994,2 53837  53.2168 239.4703 0001893  43.7303 316.3839 15.08839591 12861,6917.882,95.438,541.056,538.437,0.0
53837.0,STARLINK-4776,PAYLOAD,2022-12-08 01:25:08,15.0885452,0.0001969,53.2173,235.3078,47.9733,312.1427,4.7227e-05,4.64e-06,0.0,0 STARLINK-4776,1 53837U 22114V   22342.05912148  .00000464  00000-0  47227-4 0  9999,2 53837  53.2173 235.3078 0001969  47.9733 312.1427 15.08854520 13007,6917.8359999999975,95.437,541.063,538.339,0.0
53837.0,STARLINK-4776,PAYLOAD,2022-12-08 23:40:32,15.08838645,0.0001976,53.2173,231.1445,53.5613,306.5561,0.00015428,2.168e-05,0.0,0 STARLINK-4776,1 53837U 22114V   22342.98648420  .00002168  00000-0  15428-3 0  9990,2 53837  53.2173 231.1445 0001976  53.5613 306.5561 15.08838645 13148,6917.885,95.438,541.117,538.383,0.0
53837.0,STARLINK-4776,PAYLOAD,2022-12-09 20:20:35,15.08819494,0.000189,53.2175,227.2793,43.3019,316.8121,-0.00026928,-4.569e-05,0.0,0 STARLINK-4776,1 53837U 22114V   22343.84763618 -.00004569  00000-0 -26928-3 0  9999,2 53837  53.2175 227.2793 0001890  43.3019 316.8121 15.08819494 13275,6917.943,95.439,541.116,538.501,0.0
53837.0,STARLINK-4776,PAYLOAD,2022-12-10 02:42:08,15.08822119,0.0001867,53.2179,226.0891,47.3143,312.8006,-0.00022545,-3.873e-05,0.0,0 STARLINK-4776,1 53837U 22114V   22344.11259581 -.00003873  00000-0 -22545-3 0  9997,2 53837  53.2179 226.0891 0001867  47.3143 312.8006 15.08822119 13851,6917.935,95.439,541.092,538.508,0.0
53837.0,STARLINK-4776,PAYLOAD,2022-12-10 20:11:22,15.08832666,0.0001803,53.2168,222.8173,41.7817,318.3312,-0.00015132,-2.695e-05,0.0,0 STARLINK-4776,1 53837U 22114V   22344.84123364 -.00002695  00000-0 -15132-3 0  9991,2 53837  53.2168 222.8173 0001803  41.7817 318.3312 15.08832666 13424,6917.903,95.438,541.015,538.521,0.0
53837.0,STARLINK-4776,PAYLOAD,2022-12-11 02:32:54,15.08836481,0.0001837,53.217,221.6279,42.4682,317.6452,-9.8837e-05,-1.861e-05,0.0,0 STARLINK-4776,1 53837U 22114V   22345.10619127 -.00001861  00000-0 -98837-4 0  9996,2 53837  53.2170 221.6279 0001837  42.4682 317.6452 15.08836481 14007,6917.891,95.438,541.0269999999998,538.485,0.0
53837.0,STARLINK-4776,PAYLOAD,2022-12-11 20:02:09,15.08829661,0.0001753,53.2173,218.3575,40.5639,319.5484,0.00024041,3.539e-05,0.0,0 STARLINK-4776,1 53837U 22114V   22345.83482824  .00003539  00000-0  24041-3 0  9995,2 53837  53.2173 218.3575 0001753  40.5639 319.5484 15.08829661 13579,6917.9119999999975,95.438,540.99,538.564,0.0
53837.0,STARLINK-4776,PAYLOAD,2022-12-12 00:48:18,15.08835235,0.0001812,53.2171,217.4654,41.1412,318.9717,0.00027685,4.120000000000001e-05,0.0,0 STARLINK-4776,1 53837U 22114V   22346.03354531  .00004120  00000-0  27685-3 0  9995,2 53837  53.2171 217.4654 0001812  41.1412 318.9717 15.08835235 14147,6917.895,95.438,541.013,538.506,0.0
53837.0,STARLINK-4776,PAYLOAD,2022-12-13 08:36:01,15.08839049,0.0001801,53.2164,211.5184,43.9589,316.1547,4.484e-05,4.26e-06,0.0,0 STARLINK-4776,1 53837U 22114V   22347.35835117  .00000426  00000-0  44840-4 0  9993,2 53837  53.2164 211.5184 0001801  43.9589 316.1547 15.08839049 13805,6917.8830000000025,95.438,540.994,538.502,0.0
53837.0,STARLINK-4776,PAYLOAD,2022-12-13 18:08:19,15.08852797,0.0001284999999999,53.2188,209.7322,49.5775,310.5329,-2.7631e-05,-7.28e-06,0.0,0 STARLINK-4776,1 53837U 22114V   22347.75578179 -.00000728  00000-0 -27631-4 0  9995,2 53837  53.2188 209.7322 0001285  49.5775 310.5329 15.08852797 13866,6917.840999999999,95.437,540.595,538.817,0.0
53837.0,STARLINK-4776,PAYLOAD,2022-12-14 08:26:48,15.08844382,0.0001863,53.2178,207.0594,33.7484,326.3626,-8.1891e-05,-1.591e-05,0.0,0 STARLINK-4776,1 53837U 22114V   22348.35194710 -.00001591  00000-0 -81891-4 0  9994,2 53837  53.2178 207.0594 0001863  33.7484 326.3626 15.08844382 13957,6917.8669999999975,95.437,541.021,538.443,0.0
53837.0,STARLINK-4776,PAYLOAD,2022-12-14 21:09:53,15.08834895,0.0002282,53.2152,204.6773,63.3336,296.7889,5.0032e-05,5.08e-06,0.0,0 STARLINK-4776,1 53837U 22114V   22348.88186936  .00000508  00000-0  50032-4 0  9991,2 53837  53.2152 204.6773 0002282  63.3336 296.7889 15.08834895 14570,6917.896,95.438,541.34,538.182,0.0
